[{"OBJECT_NAME":"NUSTAR","OBJECT_ID":"2012-031A","EPOCH":"2026-03-10T00:00:02.999808","MEAN_MOTION":15.07728841,"ECCENTRICITY":0.00071224,"INCLINATION":6.0266,"RA_OF_ASC_NODE":57.5732,"ARG_OF_PERICENTER":70.6924,"MEAN_ANOMALY":331.0724,"EPHEMERIS_TYPE":0,"CLASSIFICATION_TYPE":"U","NORAD_CAT_ID":38358,"ELEMENT_SET_NO":999,"REV_AT_EPOCH":130,"BSTAR":0.0011080621,"MEAN_MOTION_DOT":0.00018332,"MEAN_MOTION_DDOT":0},{"OBJECT_NAME":"STARLINK-3355","OBJECT_ID":"2022-001F","EPOCH":"2026-03-09T11:24:42.733440","MEAN_MOTION":15.0883015,"ECCENTRICITY":0.00013965,"INCLINATION":53.2175,"RA_OF_ASC_NODE":160.0827,"ARG_OF_PERICENTER":109.4344,"MEAN_ANOMALY":250.6799,"EPHEMERIS_TYPE":0,"CLASSIFICATION_TYPE":"U","NORAD_CAT_ID":50808,"ELEMENT_SET_NO":999,"REV_AT_EPOCH":23051,"BSTAR":-3.907786e-6,"MEAN_MOTION_DOT":-3.5e-6,"MEAN_MOTION_DDOT":0}]
